NOAA 1 [-]              
1 04793U 70106A   18331.64328767 -.00000041  00000-0  24604-4 0  9992
2 04793 101.7338  37.6305 0031491 318.6715 151.8478 12.53987534195401
NOAA 2 (ITOS-D) [-]     
1 06235U 72082A   18331.90750918 -.00000040  00000-0  28383-4 0  9993
2 06235 101.7645 295.0696 0004325  46.1993 334.3637 12.53110255109447
NOAA 3 [-]              
1 06920U 73086A   18331.93804767 -.00000030  00000-0  10724-3 0  9992
2 06920 102.0201 298.2845 0006219 169.1346 205.9898 12.40346708 39920
NOAA 4 [-]              
1 07529U 74089A   18331.90119528 -.00000037  00000-0  50800-4 0  9990
2 07529 101.7219 296.9599 0009143  76.5217 306.3398 12.53123456 14010
NOAA 5 [-]              
1 09057U 76077A   18331.90681091 -.00000045  00000-0 -71433-5 0  9992
2 09057 101.9020 303.2134 0010174  23.8085   0.9134 12.37756778913194
TIROS N [P]             
1 11060U 78096A   18331.62755229  .00000011  00000-0  26952-4 0  9992
2 11060  98.8218  25.5759 0009641 269.4718  90.5352 14.18216170287648
NOAA 6 [P]              
1 11416U 79057A   18331.92697748  .00000030  00000-0  26869-4 0  9997
2 11416  98.6241 321.5881 0011235 123.2514 236.9748 14.33506338 55615
NOAA 7 [-]              
1 12553U 81059A   18331.94985691 -.00000025  00000-0  10491-4 0  9993
2 12553  99.0936 329.6275 0011225 192.9427 197.0309 14.17250539934005
NOAA 8 [-]              
1 13923U 83022A   18331.57845604 -.00000005  00000-0  15017-4 0  9992
2 13923  98.5622 315.4045 0016141  53.9058 306.3615 14.28658626857346
NOAA 9 [P]              
1 15427U 84123A   18331.85885663 -.00000005  00000-0  19898-4 0  9997
2 15427  98.8662 276.4229 0013862 251.9767 128.6648 14.16052810752961
NOAA 10 [-]             
1 16969U 86073A   18331.96678986 -.00000010  00000-0  13176-4 0  9994
2 16969  98.4707 329.4533 0012534 156.9583 275.0579 14.28057430675646
NOAA 11 [-]             
1 19531U 88089A   18331.95904397 -.00000048  00000-0 -32318-5 0  9990
2 19531  98.4768  11.5639 0010456 322.9672  37.0780 14.15233661557290
NOAA 12 [-]             
1 21263U 91032A   18331.84017553 -.00000015  00000-0  11491-4 0  9995
2 21263  98.5281 347.7693 0013795 171.9542 188.1862 14.25880976431802
NOAA 13 [-]             
1 22739U 93050A   18331.54384025 -.00000032  00000-0  45883-5 0  9996
2 22739  98.4932   0.0167 0010652 102.0921 258.1446 14.12718104304032
NOAA 14 [-]             
1 23455U 94089A   18331.86274555 -.00000026  00000-0  86429-5 0  9990
2 23455  98.6269  35.4607 0010549  86.4524 273.7855 14.14123050233314
NOAA 15 [B]             
1 25338U 98030A   18331.83291084  .00000009  00000-0  22539-4 0  9996
2 25338  98.7617 348.3146 0011467 110.6070 249.6341 14.25885085 68081
NOAA 16 [-]             
1 26536U 00055A   18331.88388720 -.00000009  00000-0  18285-4 0  9990
2 26536  98.8007  42.4920 0009539 259.6008 100.4090 14.13217432234071
NOAA 17 [-]             
1 27453U 02032A   18331.84231412  .00000004  00000-0  19645-4 0  9992
2 27453  98.5096 283.0757 0012804  93.2199 267.0446 14.25026374854044
NOAA 18 [B]             
1 28654U 05018A   18331.96244453 -.00000007  00000-0  21197-4 0  9994
2 28654  99.1262  10.5942 0014658  31.3344 328.8697 14.12390853696807
NOAA 19 [+]             
1 33591U 09005A   18331.93465469  .00000032  00000-0  42511-4 0  9999
2 33591  99.1612 313.3637 0013234 224.8551 135.1551 14.12320059505027
SUOMI NPP [+]           
1 37849U 11061A   18331.86445104  .00000016  00000-0  28473-4 0  9993
2 37849  98.7155 268.0036 0001614  85.8901 352.8335 14.19549892367104
NOAA 20 [+]             
1 43013U 17073A   18331.95416648  .00000010  00000-0  25574-4 0  9996
2 43013  98.7412 267.9527 0001365  96.9562 263.1769 14.19552990 53146
